NORAD_CAT_ID,OBJECT_NAME,OBJECT_TYPE,EPOCH,MEAN_MOTION,ECCENTRICITY,INCLINATION,RA_OF_ASC_NODE,ARG_OF_PERICENTER,MEAN_ANOMALY,BSTAR,MEAN_MOTION_DOT,MEAN_MOTION_DDOT,TLE_LINE0,TLE_LINE1,TLE_LINE2,SEMIMAJOR_AXIS,PERIOD,APOGEE,PERIGEE,DECAYED
52588.0,STARLINK-3917,PAYLOAD,2023-12-29 13:09:40,15.08837811,0.0001487,53.2173,115.5857,64.1064,296.0081,-3.4608e-06,-3.43e-06,0.0,0 STARLINK-3917,1 52588U 22051BE  23363.54838349 -.00000343  00000-0 -34608-5 0  9997,2 52588  53.2173 115.5857 0001487  64.1064 296.0081 15.08837811 90641,6917.887,95.438,540.781,538.723,0.0
52588.0,STARLINK-3917,PAYLOAD,2023-12-30 13:00:27,15.08837925,0.000142,53.2171,111.1244,67.6021,292.5122,8.7174e-05,1.1e-05,0.0,0 STARLINK-3917,1 52588U 22051BE  23364.54198333  .00001100  00000-0  87174-4 0  9995,2 52588  53.2171 111.1244 0001420  67.6021 292.5122 15.08837925 90866,6917.887,95.438,540.734,538.769,0.0
52588.0,STARLINK-3917,PAYLOAD,2023-12-31 16:02:01,15.08837687,0.0001351,53.217,106.0695,71.8361,288.2779,4.411e-05,4.14e-06,0.0,0 STARLINK-3917,1 52588U 22051BE  23365.66806718  .00000414  00000-0  44110-4 0  9992,2 52588  53.2170 106.0695 0001351  71.8361 288.2779 15.08837687 91030,6917.887,95.438,540.687,538.818,0.0
52588.0,STARLINK-3917,PAYLOAD,2024-01-01 14:17:24,15.08848238,0.000142,53.2166,101.9059,78.4748,281.6403,0.00011539,1.549e-05,0.0,0 STARLINK-3917,1 52588U 22051BE  24001.59541867  .00001549  00000-0  11539-3 0  9991,2 52588  53.2166 101.9059 0001420  78.4748 281.6403 15.08848238 91105,6917.855,95.437,540.703,538.738,0.0
52588.0,STARLINK-3917,PAYLOAD,2024-01-02 10:57:25,15.08842106,0.0001321,53.2165,98.0408,72.3083,287.8053,6.4519e-05,7.39e-06,0.0,0 STARLINK-3917,1 52588U 22051BE  24002.45654371  .00000739  00000-0  64519-4 0  9999,2 52588  53.2165  98.0408 0001321  72.3083 287.8053 15.08842106 91302,6917.874,95.437,540.653,538.825,0.0
52588.0,STARLINK-3917,PAYLOAD,2024-01-02 12:32:48,15.08844021,0.0001431,53.2168,97.743,69.1921,290.9225,8.5698e-05,1.076e-05,0.0,0 STARLINK-3917,1 52588U 22051BE  24002.52278219  .00001076  00000-0  85698-4 0  9996,2 52588  53.2168  97.7430 0001431  69.1921 290.9225 15.08844021 91240,6917.868,95.437,540.723,538.743,0.0
52588.0,STARLINK-3917,PAYLOAD,2024-01-03 12:23:35,15.08841413,0.0001403,53.2168,93.2803,100.7544,259.3607,-5.0024e-05,-1.084e-05,0.0,0 STARLINK-3917,1 52588U 22051BE  24003.51638666 -.00001084  00000-0 -50024-4 0  9998,2 52588  53.2168  93.2803 0001403 100.7544 259.3607 15.08841413 91466,6917.876,95.437,540.712,538.77,0.0
52588.0,STARLINK-3917,PAYLOAD,2024-01-04 12:14:22,15.08843485,0.0001415,53.2169,88.8197,94.0947,266.0207,2.3841e-05,9.2e-07,0.0,0 STARLINK-3917,1 52588U 22051BE  24004.50998386  .00000092  00000-0  23841-4 0  9999,2 52588  53.2169  88.8197 0001415  94.0947 266.0207 15.08843485 91549,6917.87,95.437,540.714,538.756,0.0
52588.0,STARLINK-3917,PAYLOAD,2024-01-04 15:25:08,15.08844931,0.0001449,53.2167,88.2243,94.5518,265.564,2.2248e-05,6.6e-07,0.0,0 STARLINK-3917,1 52588U 22051BE  24004.64246272  .00000066  00000-0  22248-4 0  9995,2 52588  53.2167  88.2243 0001449  94.5518 265.5640 15.08844931 91631,6917.865,95.437,540.733,538.728,0.0
52588.0,STARLINK-3917,PAYLOAD,2024-01-05 10:29:47,15.08790924,0.000173,53.217,84.6542,95.566,264.5529,0.00065638,0.0001016,0.0,0 STARLINK-3917,1 52588U 22051BE  24005.43735954  .00010160  00000-0  65638-3 0  9998,2 52588  53.2170  84.6542 0001730  95.5660 264.5529 15.08790924 91759,6918.03,95.441,541.092,538.699,0.0
52588.0,STARLINK-3917,PAYLOAD,2024-01-05 15:15:56,15.08827361,0.000151,53.2171,83.7617,101.2212,258.895,0.00019519,2.819e-05,0.0,0 STARLINK-3917,1 52588U 22051BE  24005.63607197  .00002819  00000-0  19519-3 0  9996,2 52588  53.2171  83.7617 0001510 101.2212 258.8950 15.08827361 91780,6917.919,95.438,540.829,538.739,0.0
52588.0,STARLINK-3917,PAYLOAD,2024-01-06 11:55:57,15.08841844,0.0001471,53.2168,79.8973,101.9242,258.1915,2.7527e-05,1.5e-06,0.0,0 STARLINK-3917,1 52588U 22051BE  24006.49718876  .00000150  00000-0  27527-4 0  9993,2 52588  53.2168  79.8973 0001471 101.9242 258.1915 15.08841844 91914,6917.875,95.437,540.757,538.722,0.0
52588.0,STARLINK-3917,PAYLOAD,2024-01-07 13:22:07,15.08823402,0.0001705,53.2178,75.1403,110.1433,249.9742,0.00025103,3.708e-05,0.0,0 STARLINK-3917,1 52588U 22051BE  24007.55703546  .00003708  00000-0  25103-3 0  9998,2 52588  53.2178  75.1403 0001705 110.1433 249.9742 15.08823402 92003,6917.931,95.439,540.976,538.617,0.0
52588.0,STARLINK-3917,PAYLOAD,2024-01-08 11:37:31,15.08842055,0.0001634,53.2185,70.9788,90.3629,269.755,8.5253e-05,1.069e-05,0.0,0 STARLINK-3917,1 52588U 22051BE  24008.48439105  .00001069  00000-0  85253-4 0  9999,2 52588  53.2185  70.9788 0001634  90.3629 269.7550 15.08842055 92212,6917.874,95.437,540.869,538.609,0.0
52588.0,STARLINK-3917,PAYLOAD,2024-01-09 11:28:18,15.08844334,0.0001844,53.2186,66.5203,69.6547,290.4643,7.1476e-05,8.5e-06,0.0,0 STARLINK-3917,1 52588U 22051BE  24009.47799174  .00000850  00000-0  71476-4 0  9993,2 52588  53.2186  66.5203 0001844  69.6547 290.4643 15.08844334 92291,6917.867,95.437,541.008,538.456,0.0
52588.0,STARLINK-3917,PAYLOAD,2024-01-09 22:36:00,15.08841442,0.0001692,53.2182,64.4444,75.1643,284.9536,6.4992e-05,7.46e-06,0.0,0 STARLINK-3917,1 52588U 22051BE  24009.94167312  .00000746  00000-0  64992-4 0  9997,2 52588  53.2182  64.4444 0001692  75.1643 284.9536 15.08841442 92433,6917.876,95.437,540.911,538.57,0.0
52588.0,STARLINK-3917,PAYLOAD,2024-01-10 08:08:19,15.0882249,0.000165,53.2176,62.6574,86.2591,273.859,0.00019335,2.789e-05,0.0,0 STARLINK-3917,1 52588U 22051BE  24010.33911908  .00002789  00000-0  19335-3 0  9999,2 52588  53.2176  62.6574 0001650  86.2591 273.8590 15.08822490 92494,6917.934,95.439,540.94,538.657,0.0
52588.0,STARLINK-3917,PAYLOAD,2024-01-11 09:34:28,15.08848579,0.0001602,53.2175,57.8971,91.6248,268.4927,8.2934e-05,1.032e-05,0.0,0 STARLINK-3917,1 52588U 22051BE  24011.39894606  .00001032  00000-0  82934-4 0  9997,2 52588  53.2175  57.8971 0001602  91.6248 268.4927 15.08848579 92654,6917.854,95.437,540.827,538.611,0.0
52588.0,STARLINK-3917,PAYLOAD,2024-01-12 03:03:44,15.08833002,0.0001457,53.2174,54.6268,87.2776,272.8383,3.4122e-05,2.55e-06,0.0,0 STARLINK-3917,1 52588U 22051BE  24012.12759718  .00000255  00000-0  34122-4 0  9995,2 52588  53.2174  54.6268 0001457  87.2776 272.8383 15.08833002 92764,6917.902,95.438,540.775,538.759,0.0
52588.0,STARLINK-3917,PAYLOAD,2024-01-12 09:25:16,15.08835814,0.0001521,53.2162,53.4357,74.8731,285.243,4.666e-05,4.55e-06,0.0,0 STARLINK-3917,1 52588U 22051BE  24012.39255671  .00000455  00000-0  46660-4 0  9995,2 52588  53.2162  53.4357 0001521  74.8731 285.2430 15.08835814 92733,6917.893,95.438,540.81,538.706,0.0
52588.0,STARLINK-3917,PAYLOAD,2024-01-13 09:16:03,15.08838444,0.0001834,53.2181,48.9735,104.4366,255.683,2.0614e-05,4e-07,0.0,0 STARLINK-3917,1 52588U 22051BE  24013.38615688  .00000040  00000-0  20614-4 0  9994,2 52588  53.2181  48.9735 0001834 104.4366 255.6830 15.08838444 92955,6917.885,95.438,541.019,538.481,0.0
52588.0,STARLINK-3917,PAYLOAD,2024-01-14 07:31:28,15.08835365,0.0001555,53.2163,44.8093,103.9625,256.154,0.00013507,1.862e-05,0.0,0 STARLINK-3917,1 52588U 22051BE  24014.31351874  .00001862  00000-0  13507-3 0  9997,2 52588  53.2163  44.8093 0001555 103.9625 256.1540 15.08835365 93021,6917.895,95.438,540.835,538.684,0.0
52588.0,STARLINK-3917,PAYLOAD,2024-01-15 10:33:00,15.0884591,0.0001479,53.2167,39.7548,97.9636,262.1524,0.0001545,2.172e-05,0.0,0 STARLINK-3917,1 52588U 22051BE  24015.43959489  .00002172  00000-0  15450-3 0  9991,2 52588  53.2167  39.7548 0001479  97.9636 262.1524 15.08845910 93264,6917.862,95.437,540.75,538.704,0.0
52588.0,STARLINK-3917,PAYLOAD,2024-01-16 10:23:48,15.0884292,0.0001617,53.2167,35.2929,98.8509,261.2666,8.9114e-05,1.131e-05,0.0,0 STARLINK-3917,1 52588U 22051BE  24016.43320130  .00001131  00000-0  89114-4 0  9990,2 52588  53.2167  35.2929 0001617  98.8509 261.2666 15.08842920 93413,6917.871,95.437,540.855,538.618,0.0
52588.0,STARLINK-3917,PAYLOAD,2024-01-17 00:42:17,15.08841628,0.0001527,53.2161,32.6182,98.1502,261.9663,7.6176e-06,-1.67e-06,0.0,0 STARLINK-3917,1 52588U 22051BE  24017.02936537 -.00000167  00000-0  76176-5 0  9994,2 52588  53.2161  32.6182 0001527  98.1502 261.9663 15.08841628 93503,6917.875,95.437,540.797,538.684,0.0
52588.0,STARLINK-3917,PAYLOAD,2024-01-17 07:03:49,15.08848037,0.000153,53.2166,31.4287,105.5816,254.5345,-6.5881e-05,-1.337e-05,0.0,0 STARLINK-3917,1 52588U 22051BE  24017.29432271 -.00001337  00000-0 -65881-4 0  9990,2 52588  53.2166  31.4287 0001530 105.5816 254.5345 15.08848037 93478,6917.856,95.437,540.779,538.662,0.0
52588.0,STARLINK-3917,PAYLOAD,2024-01-18 10:05:20,15.08873683,0.0001989,53.2174,26.3679,133.1865,226.9294,0.00028214,4.209e-05,0.0,0 STARLINK-3917,1 52588U 22051BE  24018.42037202  .00004209  00000-0  28214-3 0  9998,2 52588  53.2174  26.3679 0001989 133.1865 226.9294 15.08873683 93712,6917.777,95.435,541.018,538.266,0.0
52588.0,STARLINK-3917,PAYLOAD,2024-01-19 03:34:36,15.08843729,0.0001703,53.2182,23.105,74.7456,285.3724,6.6073e-05,7.64e-06,0.0,0 STARLINK-3917,1 52588U 22051BE  24019.14903582  .00000764  00000-0  66073-4 0  9999,2 52588  53.2182  23.1050 0001703  74.7456 285.3724 15.08843729 93826,6917.869,95.437,540.912,538.556,0.0
52588.0,STARLINK-3917,PAYLOAD,2024-01-19 09:56:08,15.08849055,0.0001568,53.2172,21.9111,89.2929,270.8243,7.5375e-05,9.12e-06,0.0,0 STARLINK-3917,1 52588U 22051BE  24019.41398930  .00000912  00000-0  75375-4 0  9994,2 52588  53.2172  21.9111 0001568  89.2929 270.8243 15.08849055 93793,6917.853,95.437,540.802,538.633,0.0
52588.0,STARLINK-3917,PAYLOAD,2024-01-20 03:25:24,15.08837797,0.0001557,53.216,18.6384,101.4656,258.651,-0.00026118,-4.442e-05,0.0,0 STARLINK-3917,1 52588U 22051BE  24020.14264642 -.00004442  00000-0 -26118-3 0  9992,2 52588  53.2160  18.6384 0001557 101.4656 258.6510 15.08837797 93978,6917.887,95.438,540.829,538.675,0.0
